{
  "type": "FeatureCollection",
  "features": [
    {
      "type": "Feature",
      "geometry": {
        "coordinates": [
          [
            [
              1900.7870193178533,
              142,
              4823.786770823412
            ],
            [
              2273.589453654393,
              150,
              4344.88813082315
            ],
            [
              2669.9594195464742,
              114,
              4042.876970822923
            ],
            [
              2548.8716656008037,
              59,
              3317.7384908236563
            ],
            [
              2696.449009186297,
              94,
              2898.2847308227792
            ],
            [
              2480.9441894064657,
              110,
              2497.6440508225933
            ],
            [
              2604.600033476425,
              143,
              2251.849490822293
            ],
            [
              2730.5980263825913,
              142,
              2147.765290822834
            ],
            [
              2933.750910612871,
              150,
              2100.4542908230796
            ],
            [
              3169.594793874596,
              158,
              2015.294490822591
            ],
            [
              3318.7725797442545,
              150,
              1652.6139308232814
            ],
            [
              3290.8188296736625,
              157,
              1198.5396508229896
            ],
            [
              3102.6553832292557,
              143,
              1050.2614108230919
            ],
            [
              2891.871737710986,
              147,
              1252.0845708232373
            ],
            [
              2612.1787051121355,
              145,
              1668.9779708227143
            ],
            [
              2556.708338457189,
              142,
              1845.5314908223227
            ],
            [
              2338.729550638149,
              147,
              1971.6570508228615
            ],
            [
              2144.526621494966,
              156,
              2148.21057082247
            ],
            [
              2051.9951508704107,
              80,
              2740.7669308232144
            ],
            [
              2186.328348727169,
              82,
              2892.050810823217
            ],
            [
              2070.883958989725,
              71,
              3160.1093708230183
            ],
            [
              1897.519306451839,
              58,
              3295.474490822293
            ],
            [
              1934.2541341431206,
              91,
              3774.484450822696
            ],
            [
              1737.9709079201566,
              138,
              4026.5129308225587
            ],
            [
              1798.287260523677,
              159,
              4206.740010823123
            ],
            [
              1666.3563524902856,
              160,
              4191.155210822821
            ],
            [
              1447.1552509398607,
              164,
              4247.817090822384
            ],
            [
              843.9004306387505,
              161,
              4442.404450822622
            ],
            [
              573.171424532251,
              152,
              4656.695450822823
            ],
            [
              844.7425930465688,
              149,
              4858.407290822826
            ],
            [
              1010.8010951305041,
              150,
              5223.870850822888
            ],
            [
              1751.6653016105993,
              0,
              5287.991170822643
            ],
            [
              2568.6922137432557,
              158,
              4946.57273082342
            ],
            [
              3227.4980931969476,
              145,
              4386.410490822978
            ],
            [
              3252.4812486626906,
              62,
              3847.3990508224815
            ],
            [
              3029.4304472309886,
              82,
              3824.801090822555
            ],
            [
              2720.0322093081195,
              100,
              4064.3617308232933
            ],
            [
              2482.716719875083,
              147,
              4429.825290822424
            ],
            [
              2316.7494992782013,
              142,
              4597.695850823075
            ],
            [
              1900.7870193178533,
              142,
              4823.786770823412
            ]
          ]
        ],
        "type": "Polygon"
      },
      "properties": {
        "osk_boundary_type": "race"
      },
      "id": "EyODM"
    },
    {
      "type": "Feature",
      "geometry": {
        "coordinates": [
          [
            [
              2574.5322972364374,
              142,
              1813.360010823235
            ],
            [
              2676.102423025848,
              143,
              1846.5333708235994
            ],
            [
              2813.5285119446926,
              144,
              1785.084730822593
            ],
            [
              2879.524525830784,
              160,
              1518.5846508229151
            ],
            [
              3012.8736407282413,
              120,
              1540.6260108230636
            ],
            [
              2878.532273570221,
              142,
              1881.153890823014
            ],
            [
              3062.834259940777,
              161,
              2053.0319708231837
            ],
            [
              3285.566076594958,
              152,
              1657.2893708227202
            ],
            [
              3243.0595525126264,
              160,
              1215.9055708236992
            ],
            [
              3087.066385163489,
              140,
              1099.1308908229694
            ],
            [
              2777.1430302896188,
              163,
              1457.13601082284
            ],
            [
              2574.5322972364374,
              142,
              1813.360010823235
            ]
          ]
        ],
        "type": "Polygon"
      },
      "properties": {
        "_umap_options": {
          "color": "Lime"
        },
        "osk_boundary_type": "local_race_boundary"
      },
      "id": "O0RY1"
    },
    {
      "type": "Feature",
      "geometry": {
        "coordinates": [
          [
            [
              2896.7797670503787,
              142,
              1849.6503308229148
            ],
            [
              2678.0792563838186,
              127,
              1944.272330822423
            ],
            [
              2593.636329273111,
              124,
              2082.9770508231595
            ],
            [
              2434.020970758982,
              121,
              2152.329410823062
            ],
            [
              2381.06187073607,
              103,
              2459.79525082279
            ],
            [
              2489.953547433426,
              113,
              2455.0084908232093
            ],
            [
              3015.7795016936725,
              157,
              2043.5697708223015
            ],
            [
              2896.7797670503787,
              142,
              1849.6503308229148
            ]
          ]
        ],
        "type": "Polygon"
      },
      "properties": {
        "_umap_options": {
          "color": "Lime"
        },
        "osk_boundary_type": "local_race_boundary"
      },
      "id": "rMDtB"
    },
    {
      "type": "Feature",
      "geometry": {
        "coordinates": [
          [
            [
              2684.626254790899,
              146,
              1826.050490822643
            ],
            [
              2564.9456714410917,
              144,
              1930.0233708228916
            ],
            [
              2364.563682232867,
              128,
              2098.7844908228144
            ],
            [
              2310.8594495855505,
              96,
              2596.941490823403
            ],
            [
              2080.6276792052668,
              93,
              2600.0584508227184
            ],
            [
              2143.776608158485,
              156,
              2153.8878908231854
            ],
            [
              2553.249657650653,
              145,
              1786.6432108227164
            ],
            [
              2684.626254790899,
              146,
              1826.050490822643
            ]
          ]
        ],
        "type": "Polygon"
      },
      "properties": {
        "_umap_options": {
          "color": "Lime"
        },
        "osk_boundary_type": "local_race_boundary"
      },
      "id": "2NFjK"
    },
    {
      "type": "Feature",
      "geometry": {
        "coordinates": [
          [
            [
              2389.150600716559,
              103,
              2451.8915308229625
            ],
            [
              2392.493007338344,
              105,
              2555.975730823353
            ],
            [
              2498.6317982323526,
              111,
              2757.6875708233565
            ],
            [
              2417.5738740102097,
              88,
              3002.034970822744
            ],
            [
              2630.2156934285013,
              92,
              3063.483610822819
            ],
            [
              2655.765305155801,
              91,
              2833.385170822963
            ],
            [
              2510.0028280889965,
              115,
              2470.815930822864
            ],
            [
              2389.150600716559,
              103,
              2451.8915308229625
            ]
          ]
        ],
        "type": "Polygon"
      },
      "properties": {
        "_umap_options": {
          "color": "Lime"
        },
        "osk_boundary_type": "local_race_boundary"
      },
      "id": "zAurw"
    },
    {
      "type": "Feature",
      "geometry": {
        "coordinates": [
          [
            [
              2286.0531888023834,
              95,
              2583.0264908224344
            ],
            [
              2403.694933775987,
              95,
              2770.6006908230484
            ],
            [
              2322.1206062355486,
              73,
              3141.0736508229747
            ],
            [
              2089.6115044848993,
              78,
              3057.4723308235407
            ],
            [
              2146.328601332789,
              91,
              2617.7583308229223
            ],
            [
              2286.0531888023834,
              95,
              2583.0264908224344
            ]
          ]
        ],
        "type": "Polygon"
      },
      "properties": {
        "_umap_options": {
          "color": "Lime"
        },
        "osk_boundary_type": "local_race_boundary"
      },
      "id": "BH72x"
    },
    {
      "type": "Feature",
      "geometry": {
        "coordinates": [
          [
            [
              2425.381633992307,
              87,
              3003.927410823293
            ],
            [
              2474.011459919013,
              87,
              3068.4930108226836
            ],
            [
              2419.6545213319478,
              67,
              3204.080770823173
            ],
            [
              2360.723425369186,
              58,
              3281.336850822903
            ],
            [
              2549.869505299226,
              60,
              3282.8953308230266
            ],
            [
              2653.782901341823,
              95,
              3010.272650822997
            ],
            [
              2425.381633992307,
              87,
              3003.927410823293
            ]
          ]
        ],
        "type": "Polygon"
      },
      "properties": {
        "_umap_options": {
          "color": "Lime"
        },
        "osk_boundary_type": "local_race_boundary"
      },
      "id": "5qidE"
    },
    {
      "type": "Feature",
      "geometry": {
        "coordinates": [
          [
            [
              2370.6209655316197,
              70,
              3153.6528108231723
            ],
            [
              2330.5280054280884,
              62,
              3232.4673708230257
            ],
            [
              2164.3641763541673,
              59,
              3254.508730823174
            ],
            [
              2174.9277175278694,
              60,
              3327.089370822534
            ],
            [
              2259.4511208609038,
              63,
              3349.1307308226824
            ],
            [
              2260.773576134321,
              70,
              3467.3525708224624
            ],
            [
              2104.9581144959957,
              74,
              3569.7669708225876
            ],
            [
              1911.4093528910016,
              56,
              3336.551570823416
            ],
            [
              2090.6000493640895,
              81,
              3022.8518108222634
            ],
            [
              2370.6209655316197,
              70,
              3153.6528108231723
            ]
          ]
        ],
        "type": "Polygon"
      },
      "properties": {
        "_umap_options": {
          "color": "Lime"
        },
        "osk_boundary_type": "local_race_boundary"
      },
      "id": "ZlcFG"
    },
    {
      "type": "Feature",
      "geometry": {
        "coordinates": [
          [
            [
              2410.3054227354005,
              62,
              3256.0672108232975
            ],
            [
              2248.7519129351713,
              59,
              3281.336850822903
            ],
            [
              2406.7492652803194,
              59,
              3323.8610908230767
            ],
            [
              2410.3054227354005,
              62,
              3256.0672108232975
            ]
          ]
        ],
        "type": "Polygon"
      },
      "properties": {
        "_umap_options": {
          "color": "Lime"
        },
        "osk_boundary_type": "local_race_boundary"
      },
      "id": "JKlYI"
    },
    {
      "type": "Feature",
      "geometry": {
        "coordinates": [
          [
            [
              2342.6644478193775,
              57,
              3306.4951708232984
            ],
            [
              2322.485366643057,
              65,
              3405.792610823177
            ],
            [
              2380.3319191323244,
              74,
              3476.8147708224133
            ],
            [
              2221.4922036036733,
              77,
              3574.4424108229578
            ],
            [
              2266.826649265102,
              80,
              3587.132890822366
            ],
            [
              2338.6244667221326,
              77,
              3555.629330823198
            ],
            [
              2367.525917403429,
              109,
              3814.003050823696
            ],
            [
              2606.1845036900195,
              98,
              3791.961690822616
            ],
            [
              2554.399510587449,
              69,
              3232.4673708230257
            ],
            [
              2342.6644478193775,
              57,
              3306.4951708232984
            ]
          ]
        ],
        "type": "Polygon"
      },
      "properties": {
        "_umap_options": {
          "color": "Lime"
        },
        "osk_boundary_type": "local_race_boundary"
      },
      "id": "jV3Kf"
    },
    {
      "type": "Feature",
      "geometry": {
        "coordinates": [
          [
            [
              2383.9515913540963,
              102,
              3791.961690822616
            ],
            [
              2308.787080898852,
              106,
              3828.2520108232275
            ],
            [
              2159.2022861890146,
              108,
              3823.4652508227155
            ],
            [
              2090.1763605906744,
              119,
              3866.1008108230308
            ],
            [
              2184.9955233856454,
              119,
              3856.63861082308
            ],
            [
              2246.885853581509,
              133,
              3899.162850822322
            ],
            [
              2384.4031177950965,
              128,
              3886.583690823056
            ],
            [
              2466.408104714297,
              130,
              3883.355410822667
            ],
            [
              2528.429891969805,
              142,
              3921.204210823402
            ],
            [
              2554.395308639476,
              148,
              4004.694210822694
            ],
            [
              2414.477594847267,
              154,
              4047.3297708230093
            ],
            [
              2502.3896059072285,
              137,
              4168.668570823036
            ],
            [
              2681.1159678525582,
              112,
              4038.090210823342
            ],
            [
              2645.375097505079,
              89,
              3744.650690822862
            ],
            [
              2383.9515913540963,
              102,
              3791.961690822616
            ]
          ]
        ],
        "type": "Polygon"
      },
      "properties": {
        "_umap_options": {
          "color": "Lime"
        },
        "osk_boundary_type": "local_race_boundary"
      },
      "id": "1bjYk"
    },
    {
      "type": "Feature",
      "geometry": {
        "coordinates": [
          [
            [
              2129.651563953812,
              72,
              3533.4766508229077
            ],
            [
              2170.2180852994497,
              79,
              3656.4852508231997
            ],
            [
              2284.2660331560473,
              83,
              3637.560850822367
            ],
            [
              2299.9766890447354,
              93,
              3750.995930822566
            ],
            [
              2299.16489868841,
              95,
              3779.3825308224186
            ],
            [
              2128.5568283338507,
              96,
              3790.403210822493
            ],
            [
              2000.5994339351018,
              110,
              3856.63861082308
            ],
            [
              2003.5470488747524,
              134,
              3918.087250823155
            ],
            [
              2083.4970772077213,
              140,
              3935.3418508227915
            ],
            [
              2153.206088252802,
              143,
              3922.762690823525
            ],
            [
              2263.964546473231,
              150,
              3962.169970823452
            ],
            [
              2407.8873656620563,
              142,
              3946.4738508230075
            ],
            [
              2477.969986875163,
              150,
              3974.749130822718
            ],
            [
              2319.3983436770213,
              154,
              4009.480970823206
            ],
            [
              2258.4558236799785,
              159,
              4100.874690822326
            ],
            [
              1893.4859930409875,
              159,
              4075.6050508236513
            ],
            [
              1850.5829336785537,
              109,
              3864.431010823697
            ],
            [
              1938.6720142174454,
              69,
              3539.8218908226117
            ],
            [
              2129.651563953812,
              72,
              3533.4766508229077
            ]
          ]
        ],
        "type": "Polygon"
      },
      "properties": {
        "_umap_options": {
          "color": "Lime"
        },
        "osk_boundary_type": "local_race_boundary"
      },
      "id": "yQMzR"
    },
    {
      "type": "Feature",
      "geometry": {
        "coordinates": [
          [
            [
              2423.880740694556,
              154,
              4047.3297708230093
            ],
            [
              2358.1016112826474,
              154,
              4143.398930822499
            ],
            [
              2291.146137050295,
              160,
              4170.2270508231595
            ],
            [
              2205.651186489733,
              148,
              4293.12433082331
            ],
            [
              2035.2433381542214,
              148,
              4464.891090822406
            ],
            [
              1894.785137506522,
              138,
              4691.761250822805
            ],
            [
              2000.3637745073065,
              144,
              4693.43105082307
            ],
            [
              2526.3148959978716,
              136,
              4159.206370822154
            ],
            [
              2423.880740694556,
              154,
              4047.3297708230093
            ]
          ]
        ],
        "type": "Polygon"
      },
      "properties": {
        "_umap_options": {
          "color": "Lime"
        },
        "osk_boundary_type": "local_race_boundary"
      },
      "id": "Z8ogH"
    },
    {
      "type": "Feature",
      "geometry": {
        "coordinates": [
          [
            [
              2249.564945161954,
              159,
              4080.391810823232
            ],
            [
              2105.1960592813557,
              148,
              4278.986690822989
            ],
            [
              1919.7147416082444,
              149,
              4482.257010823116
            ],
            [
              1850.2655522823334,
              141,
              4650.795490823686
            ],
            [
              1686.2238662628224,
              145,
              4654.023770823143
            ],
            [
              1692.869510925084,
              155,
              4420.808370822109
            ],
            [
              1664.8748161357944,
              158,
              4351.456010823138
            ],
            [
              1597.1464582799817,
              154,
              4351.456010823138
            ],
            [
              1563.8833687930892,
              154,
              4412.904650822282
            ],
            [
              1151.9559562920767,
              152,
              4430.270570822991
            ],
            [
              1434.5134486216702,
              165,
              4193.8268908225
            ],
            [
              1834.5256568339828,
              158,
              4097.75773082301
            ],
            [
              2251.378181397391,
              159,
              4070.929610823281
            ],
            [
              2249.564945161954,
              159,
              4080.391810823232
            ]
          ]
        ],
        "type": "Polygon"
      },
      "properties": {
        "_umap_options": {
          "color": "Lime"
        },
        "osk_boundary_type": "local_race_boundary"
      },
      "id": "HlFZY"
    },
    {
      "type": "Feature",
      "geometry": {
        "coordinates": [
          [
            [
              1161.9693779463705,
              151,
              4411.34617082309
            ],
            [
              1194.4497927350458,
              155,
              4488.490930823609
            ],
            [
              1192.8370353978535,
              156,
              4545.264130823314
            ],
            [
              1075.6081923672755,
              168,
              4565.747010822408
            ],
            [
              952.6882614165661,
              156,
              4564.188530823216
            ],
            [
              1004.2384063700738,
              156,
              4748.534450823441
            ],
            [
              841.8946371286002,
              149,
              4860.411050823517
            ],
            [
              564.7068314400385,
              154,
              4628.754130822606
            ],
            [
              952.9175716390309,
              160,
              4278.986690822989
            ],
            [
              1161.9693779463705,
              151,
              4411.34617082309
            ]
          ]
        ],
        "type": "Polygon"
      },
      "properties": {
        "_umap_options": {
          "color": "Lime"
        },
        "osk_boundary_type": "local_race_boundary"
      },
      "id": "tjtTI"
    },
    {
      "type": "Feature",
      "geometry": {
        "coordinates": [
          [
            [
              976.8235693559982,
              159,
              4715.4724108232185
            ],
            [
              1386.800093184167,
              150,
              4709.1271708235145
            ],
            [
              1387.350322090031,
              147,
              4909.280530823395
            ],
            [
              1588.4907487076125,
              141,
              4988.095090822317
            ],
            [
              1511.7073981920257,
              144,
              5136.150690822862
            ],
            [
              921.3715929218743,
              146,
              5114.109330822714
            ],
            [
              841.7147666272649,
              148,
              4866.756290823221
            ],
            [
              976.8235693559982,
              159,
              4715.4724108232185
            ]
          ]
        ],
        "type": "Polygon"
      },
      "properties": {
        "_umap_options": {
          "color": "Lime"
        },
        "osk_boundary_type": "local_race_boundary"
      },
      "id": "MOZ3X"
    },
    {
      "type": "Feature",
      "geometry": {
        "coordinates": [
          [
            [
              1570.9346929200692,
              142,
              4995.887490822934
            ],
            [
              1657.0351440289523,
              137,
              5070.026610823348
            ],
            [
              1745.23431378018,
              137,
              5016.370370822959
            ],
            [
              1783.822613666649,
              138,
              4989.65357082244
            ],
            [
              1871.2547691492073,
              144,
              5019.598650823347
            ],
            [
              2356.904997194564,
              123,
              4791.058690822683
            ],
            [
              2631.1798332871113,
              109,
              4680.740570822731
            ],
            [
              2799.435053745896,
              85,
              4310.490250823088
            ],
            [
              3047.3521140731755,
              162,
              4568.863970822655
            ],
            [
              2428.4997046523495,
              153,
              5153.51661082264
            ],
            [
              1573.9796995616634,
              0,
              5329.958810822107
            ],
            [
              1467.6571336724446,
              144,
              5189.69561082311
            ],
            [
              1570.9346929200692,
              142,
              4995.887490822934
            ]
          ]
        ],
        "type": "Polygon"
      },
      "properties": {
        "_umap_options": {
          "color": "Lime"
        },
        "osk_boundary_type": "local_race_boundary"
      },
      "id": "iH35y"
    },
    {
      "type": "Feature",
      "geometry": {
        "coordinates": [
          [
            [
              1909.2761765369214,
              137,
              4680.740570822731
            ],
            [
              1873.3006702025887,
              139,
              4726.493090822361
            ],
            [
              1619.7894960881385,
              144,
              4717.030890823342
            ],
            [
              1641.1333381001896,
              158,
              4468.008050822653
            ],
            [
              1245.4963041391748,
              153,
              4468.008050822653
            ],
            [
              1237.2263106994797,
              156,
              4591.016650822945
            ],
            [
              1164.144511557708,
              161,
              4611.49953082297
            ],
            [
              1070.7053379511053,
              168,
              4627.195650822483
            ],
            [
              1015.6294764273916,
              168,
              4624.078690822236
            ],
            [
              1037.8506580372923,
              165,
              4674.506650822237
            ],
            [
              1438.6682491450047,
              150,
              4657.14073082339
            ],
            [
              1426.0104152906279,
              153,
              4825.790530823171
            ],
            [
              1522.9408054831729,
              155,
              4852.507330822758
            ],
            [
              1602.623384117207,
              141,
              4932.880370822735
            ],
            [
              1679.9396498871793,
              140,
              4874.548690822907
            ],
            [
              1722.9605331560888,
              140,
              4913.9559708228335
            ],
            [
              1773.4208968442108,
              140,
              4857.29409082327
            ],
            [
              1794.961143312481,
              142,
              4931.321890822612
            ],
            [
              2001.7761390001688,
              134,
              4865.197810823098
            ],
            [
              2025.739562503848,
              144,
              4687.085810822435
            ],
            [
              1909.2761765369214,
              137,
              4680.740570822731
            ]
          ]
        ],
        "type": "Polygon"
      },
      "properties": {
        "_umap_options": {
          "color": "Lime"
        },
        "osk_boundary_type": "local_race_boundary"
      },
      "id": "7jA52"
    },
    {
      "type": "Feature",
      "geometry": {
        "coordinates": [
          [
            [
              1975.430404698156,
              138,
              4848.9450908228755
            ],
            [
              2279.219569931214,
              136,
              4697.661210822873
            ],
            [
              2607.495845366764,
              111,
              4571.646970823407
            ],
            [
              2790.9837423869467,
              81,
              4108.333130822517
            ],
            [
              2967.31289760262,
              72,
              4117.795330822468
            ],
            [
              3097.2811097712256,
              62,
              3871.889450822957
            ],
            [
              3097.5646531480306,
              67,
              3752.1091308230534
            ],
            [
              2867.4693035725504,
              91,
              3752.1091308230534
            ],
            [
              2513.0504773961147,
              135,
              4347.893770823255
            ],
            [
              1963.3277417826466,
              143,
              4719.702570823021
            ],
            [
              1975.430404698156,
              138,
              4848.9450908228755
            ]
          ]
        ],
        "type": "Polygon"
      },
      "properties": {
        "_umap_options": {
          "color": "Lime"
        },
        "osk_boundary_type": "local_race_boundary"
      },
      "id": "rDBoy"
    },
    {
      "type": "Feature",
      "geometry": {
        "coordinates": [
          [
            [
              2808.6587033628894,
              84,
              4373.052090822719
            ],
            [
              2831.2462521650887,
              81,
              4243.809570822865
            ],
            [
              3012.376928835816,
              74,
              4193.381610822864
            ],
            [
              3147.104658334574,
              69,
              4004.248930823058
            ],
            [
              3200.759902863414,
              45,
              3783.6126908231527
            ],
            [
              3547.2240130593127,
              0,
              3903.393010823056
            ],
            [
              3264.172374885471,
              150,
              4426.597010822967
            ],
            [
              3043.483899041981,
              161,
              4647.233250822872
            ],
            [
              2808.6587033628894,
              84,
              4373.052090822719
            ]
          ]
        ],
        "type": "Polygon"
      },
      "properties": {
        "_umap_options": {
          "color": "Lime"
        },
        "osk_boundary_type": "local_race_boundary"
      },
      "id": "xHkrR"
    }
  ]
}